{
    "links": {
        "self": "http://www.neowsapp.com/rest/v1/neo/3991752?api_key=iIulBulltgU6a56xZRHN4H3l9WmuAYTsLGpBGhQ2"
    },
    "id": "3991752",
    "neo_reference_id": "3991752",
    "name": "(2020 DO2)",
    "designation": "2020 DO2",
    "nasa_jpl_url": "http://ssd.jpl.nasa.gov/sbdb.cgi?sstr=3991752",
    "absolute_magnitude_h": 26.797,
    "estimated_diameter": {
        "kilometers": {
            "estimated_diameter_min": 0.0116186315,
            "estimated_diameter_max": 0.0259800498
        },
        "meters": {
            "estimated_diameter_min": 11.6186314705,
            "estimated_diameter_max": 25.9800497735
        },
        "miles": {
            "estimated_diameter_min": 0.0072194807,
            "estimated_diameter_max": 0.0161432495
        },
        "feet": {
            "estimated_diameter_min": 38.1188708736,
            "estimated_diameter_max": 85.2363864989
        }
    },
    "is_potentially_hazardous_asteroid": false,
    "close_approach_data": [
        {
            "close_approach_date": "2020-02-11",
            "close_approach_date_full": "2020-Feb-11 09:19",
            "epoch_date_close_approach": 1581412740000,
            "relative_velocity": {
                "kilometers_per_second": "22.3097011584",
                "kilometers_per_hour": "80314.924170361",
                "miles_per_hour": "49904.5705213001"
            },
            "miss_distance": {
                "astronomical": "0.0133150868",
                "lunar": "5.1795687652",
                "kilometers": "1991908.624145116",
                "miles": "1237714.6254539608"
            },
            "orbiting_body": "Earth"
        }
    ],
    "orbital_data": {
        "orbit_id": "2",
        "orbit_determination_date": "2020-02-29 04:58:12",
        "first_observation_date": "2020-02-20",
        "last_observation_date": "2020-02-25",
        "data_arc_in_days": 5,
        "observations_used": 13,
        "orbit_uncertainty": "9",
        "minimum_orbit_intersection": ".00619703",
        "jupiter_tisserand_invariant": "3.666",
        "epoch_osculation": "2458903.5",
        "eccentricity": ".7148254071143737",
        "semi_major_axis": "1.825559875580414",
        "inclination": "9.974756003811606",
        "ascending_node_longitude": "144.4502051197977",
        "orbital_period": "900.9331132540511",
        "perihelion_distance": ".5206032943069793",
        "perihelion_argument": "260.1868503542574",
        "aphelion_distance": "3.130516456853849",
        "perihelion_time": "2458844.084082165500",
        "mean_anomaly": "23.74175186342427",
        "mean_motion": ".3995857125283448",
        "equinox": "J2000",
        "orbit_class": {
            "orbit_class_type": "APO",
            "orbit_class_description": "Near-Earth asteroid orbits which cross the Earth’s orbit similar to that of 1862 Apollo",
            "orbit_class_range": "a (semi-major axis) > 1.0 AU; q (perihelion) < 1.017 AU"
        }
    },
    "is_sentry_object": false
}